NORAD_CAT_ID,OBJECT_NAME,OBJECT_TYPE,EPOCH,MEAN_MOTION,ECCENTRICITY,INCLINATION,RA_OF_ASC_NODE,ARG_OF_PERICENTER,MEAN_ANOMALY,BSTAR,MEAN_MOTION_DOT,MEAN_MOTION_DDOT,TLE_LINE0,TLE_LINE1,TLE_LINE2,SEMIMAJOR_AXIS,PERIOD,APOGEE,PERIGEE,DECAYED
49446.0,STARLINK-3099,PAYLOAD,2023-06-19 22:38:30,15.08865153,0.0001033,53.2168,350.2188,71.5719,288.5386,0.00063783,9.885e-05,0.0,0 STARLINK-3099,1 49446U 21104AQ  23170.94340909  .00009885  00000-0  63783-3 0  9996,2 49446  53.2168 350.2188 0001033  71.5719 288.5386 15.08865153 89962,6917.804,95.436,540.383,538.954,0.0
49446.0,STARLINK-3099,PAYLOAD,2023-06-20 05:00:03,15.0884645,0.0002044,53.2149,349.0228,79.1122,281.01,0.00016188,2.29e-05,0.0,0 STARLINK-3099,1 49446U 21104AQ  23171.20837441  .00002290  00000-0  16188-3 0  9998,2 49446  53.2149 349.0228 0002044  79.1122 281.0100 15.08846450 90005,6917.861,95.437,541.14,538.312,0.0
49446.0,STARLINK-3099,PAYLOAD,2023-06-20 11:21:36,15.08844667,0.00012,53.217,347.84,83.1475,276.9653,5.4104e-05,5.73e-06,0.0,0 STARLINK-3099,1 49446U 21104AQ  23171.47333338  .00000573  00000-0  54104-4 0  9996,2 49446  53.2170 347.8400 0001200  83.1475 276.9653 15.08844667 88973,6917.866,95.437,540.561,538.901,0.0
49446.0,STARLINK-3099,PAYLOAD,2023-06-20 19:18:31,15.08846082,9.67e-05,53.2167,346.3534,84.3026,275.8077,0.00014235,1.979e-05,0.0,0 STARLINK-3099,1 49446U 21104AQ  23171.80453121  .00001979  00000-0  14235-3 0  9997,2 49446  53.2167 346.3534 0000967  84.3026 275.8077 15.08846082 89023,6917.862,95.437,540.396,539.058,0.0
49446.0,STARLINK-3099,PAYLOAD,2023-06-21 11:12:23,15.08839911,9.78e-05,53.2168,343.3798,85.937,274.1734,0.00017945,2.569e-05,0.0,0 STARLINK-3099,1 49446U 21104AQ  23172.46693425  .00002569  00000-0  17945-3 0  9990,2 49446  53.2168 343.3798 0000978  85.9370 274.1734 15.08839911 90199,6917.881,95.438,540.422,539.069,0.0
49446.0,STARLINK-3099,PAYLOAD,2023-06-21 19:09:18,15.08845835,0.0001013,53.2169,341.8925,85.8562,274.2546,0.0002581,3.823e-05,0.0,0 STARLINK-3099,1 49446U 21104AQ  23172.79813297  .00003823  00000-0  25810-3 0  9991,2 49446  53.2169 341.8925 0001013  85.8562 274.2546 15.08845835 89178,6917.863,95.437,540.428,539.027,0.0
49446.0,STARLINK-3099,PAYLOAD,2023-06-22 17:24:42,15.08842699,9.86e-05,53.2169,337.7299,95.4066,264.7038,0.00020019,2.9e-05,0.0,0 STARLINK-3099,1 49446U 21104AQ  23173.72549607  .00002900  00000-0  20019-3 0  9997,2 49446  53.2169 337.7299 0000986  95.4066 264.7038 15.08842699 90380,6917.872,95.437,540.419,539.055,0.0
49446.0,STARLINK-3099,PAYLOAD,2023-06-23 20:26:15,15.08852213,9.85e-05,53.2175,332.6745,81.2773,278.833,0.0003306,4.979e-05,0.0,0 STARLINK-3099,1 49446U 21104AQ  23174.85157313  .00004979  00000-0  33060-3 0  9999,2 49446  53.2175 332.6745 0000985  81.2773 278.8330 15.08852213 90557,6917.843,95.437,540.389,539.027,0.0
49446.0,STARLINK-3099,PAYLOAD,2023-06-24 17:06:16,15.08845219,0.0001031,53.2172,328.8083,83.8212,276.2898,0.00015095,2.116e-05,0.0,0 STARLINK-3099,1 49446U 21104AQ  23175.71269569  .00002116  00000-0  15095-3 0  9991,2 49446  53.2172 328.8083 0001031  83.8212 276.2898 15.08845219 90688,6917.864,95.437,540.443,539.016,0.0
49446.0,STARLINK-3099,PAYLOAD,2023-06-25 02:38:35,15.08839676,0.0001099,53.2175,327.0227,78.4673,281.6442,6.2518e-05,7.07e-06,0.0,0 STARLINK-3099,1 49446U 21104AQ  23176.11013800  .00000707  00000-0  62518-4 0  9998,2 49446  53.2175 327.0227 0001099  78.4673 281.6442 15.08839676 90749,6917.881,95.438,540.507,538.986,0.0
49446.0,STARLINK-3099,PAYLOAD,2023-06-26 16:47:51,15.08834618,0.0001032,53.2165,319.8897,95.1912,264.9198,3.8665e-05,3.28e-06,0.0,0 STARLINK-3099,1 49446U 21104AQ  23177.69990605  .00000328  00000-0  38665-4 0  9994,2 49446  53.2165 319.8897 0001032  95.1912 264.9198 15.08834618 90988,6917.897,95.438,540.476,539.048,0.0
49446.0,STARLINK-3099,PAYLOAD,2023-06-27 16:38:38,15.08846783,9.43e-05,53.2167,315.4284,98.9715,261.1384,0.00011457,1.536e-05,0.0,0 STARLINK-3099,1 49446U 21104AQ  23178.69349897  .00001536  00000-0  11457-3 0  9997,2 49446  53.2167 315.4284 0000943  98.9715 261.1384 15.08846783 91134,6917.86,95.437,540.377,539.072,0.0
49446.0,STARLINK-3099,PAYLOAD,2023-06-28 08:32:30,15.08835808,9.84e-05,53.2165,312.455,101.9154,258.1949,0.0001322,1.817e-05,0.0,0 STARLINK-3099,1 49446U 21104AQ  23179.35590573  .00001817  00000-0  13220-3 0  9992,2 49446  53.2165 312.4550 0000984 101.9154 258.1949 15.08835808 91232,6917.893,95.438,540.439,539.077,0.0
49446.0,STARLINK-3099,PAYLOAD,2023-06-29 14:44:49,15.08842466,9.51e-05,53.218,306.8058,97.4389,262.6711,3.4795e-05,2.66e-06,0.0,0 STARLINK-3099,1 49446U 21104AQ  23180.61446647  .00000266  00000-0  34795-4 0  9993,2 49446  53.2180 306.8058 0000951  97.4389 262.6711 15.08842466 91428,6917.873,95.437,540.396,539.08,0.0
49446.0,STARLINK-3099,PAYLOAD,2023-06-30 14:35:36,15.08850901,9.14e-05,53.217,302.344,93.1222,266.9875,0.00020336,2.951e-05,0.0,0 STARLINK-3099,1 49446U 21104AQ  23181.60805931  .00002951  00000-0  20336-3 0  9996,2 49446  53.2170 302.3440 0000914  93.1222 266.9875 15.08850901 91578,6917.847,95.437,540.344,539.08,0.0
49446.0,STARLINK-3099,PAYLOAD,2023-07-01 08:04:51,15.08833451,8.16e-05,53.2173,299.0735,94.6497,265.4589,5.4301e-05,5.76e-06,0.0,0 STARLINK-3099,1 49446U 21104AQ  23182.33670753  .00000576  00000-0  54301-4 0  9990,2 49446  53.2173 299.0735 0000816  94.6497 265.4589 15.08833451 91680,6917.9,95.438,540.33,539.201,0.0
49446.0,STARLINK-3099,PAYLOAD,2023-07-01 17:37:10,15.08840981,9.19e-05,53.2174,297.2891,96.7065,263.4031,4.5111e-05,4.3e-06,0.0,0 STARLINK-3099,1 49446U 21104AQ  23182.73414363  .00000430  00000-0  45111-4 0  9995,2 49446  53.2174 297.2891 0000919  96.7065 263.4031 15.08840981 91745,6917.877,95.437,540.378,539.107,0.0
49446.0,STARLINK-3099,PAYLOAD,2023-07-02 23:49:29,15.08842074,8.06e-05,53.217,291.6403,88.4513,271.6571,0.00014867,2.079e-05,0.0,0 STARLINK-3099,1 49446U 21104AQ  23183.99270588  .00002079  00000-0  14867-3 0  9997,2 49446  53.2170 291.6403 0000806  88.4513 271.6571 15.08842074 91935,6917.874,95.437,540.297,539.181,0.0
49446.0,STARLINK-3099,PAYLOAD,2023-07-04 12:23:22,15.08834531,0.0001147,53.2179,284.8024,103.033,257.079,0.00018046,2.585e-05,0.0,0 STARLINK-3099,1 49446U 21104AQ  23185.51623051  .00002585  00000-0  18046-3 0  9999,2 49446  53.2179 284.8024 0001147 103.0330 257.0790 15.08834531 92163,6917.897,95.438,540.556,538.969,0.0
49446.0,STARLINK-3099,PAYLOAD,2023-07-05 13:49:32,15.08838388,9.04e-05,53.2169,280.0432,89.5728,270.5368,3.6341e-05,2.91e-06,0.0,0 STARLINK-3099,1 49446U 21104AQ  23186.57606958  .00000291  00000-0  36341-4 0  9994,2 49446  53.2169 280.0432 0000904  89.5728 270.5368 15.08838388 92325,6917.885,95.438,540.376,539.125,0.0
49446.0,STARLINK-3099,PAYLOAD,2023-07-06 15:15:42,15.0884657,8.38e-05,53.2161,275.2851,78.4094,281.6992,0.00019052,2.746e-05,0.0,0 STARLINK-3099,1 49446U 21104AQ  23187.63590774  .00002746  00000-0  19052-3 0  9996,2 49446  53.2161 275.2851 0000838  78.4094 281.6992 15.08846570 92482,6917.86,95.437,540.305,539.146,0.0
49446.0,STARLINK-3099,PAYLOAD,2023-07-07 10:20:20,15.08843598,8.67e-05,53.2163,271.7177,74.7111,285.3977,0.00017373,2.479e-05,0.0,0 STARLINK-3099,1 49446U 21104AQ  23188.43078957  .00002479  00000-0  17373-3 0  9996,2 49446  53.2163 271.7177 0000867  74.7111 285.3977 15.08843598 92602,6917.869,95.437,540.334,539.135,0.0
49446.0,STARLINK-3099,PAYLOAD,2023-07-08 16:32:39,15.08849079,7.85e-05,53.2171,266.0665,90.0452,270.063,7.4067e-05,8.92e-06,0.0,0 STARLINK-3099,1 49446U 21104AQ  23189.68934247  .00000892  00000-0  74067-4 0  9998,2 49446  53.2171 266.0665 0000785  90.0452 270.0630 15.08849079 92795,6917.853,95.437,540.261,539.175,0.0
49446.0,STARLINK-3099,PAYLOAD,2023-07-09 05:15:44,15.08838032,8.17e-05,53.2173,263.6876,95.234,264.8745,1.6757e-05,-2.1e-07,0.0,0 STARLINK-3099,1 49446U 21104AQ  23190.21927016 -.00000021  00000-0  16757-4 0  9992,2 49446  53.2173 263.6876 0000817  95.2340 264.8745 15.08838032 92877,6917.886,95.438,540.317,539.186,0.0
49446.0,STARLINK-3099,PAYLOAD,2023-07-09 14:48:02,15.08856245,0.0001018,53.2172,261.9038,105.2178,254.8926,-0.00011588,-2.132e-05,0.0,0 STARLINK-3099,1 49446U 21104AQ  23190.61669982 -.00002132  00000-0 -11588-3 0  9993,2 49446  53.2172 261.9038 0001018 105.2178 254.8926 15.08856245 92935,6917.831,95.437,540.4,538.991,0.0
49446.0,STARLINK-3099,PAYLOAD,2023-07-10 05:06:32,15.08832239,8.48e-05,53.2169,259.2264,93.1199,266.989,1.5531e-05,-4.1e-07,0.0,0 STARLINK-3099,1 49446U 21104AQ  23191.21287377 -.00000041  00000-0  15531-4 0  9993,2 49446  53.2169 259.2264 0000848  93.1199 266.9890 15.08832239 93022,6917.904,95.438,540.356,539.182,0.0
49446.0,STARLINK-3099,PAYLOAD,2023-07-10 13:03:27,15.08837857,7.57e-05,53.2166,257.7397,87.4636,272.6443,3.8115e-05,3.19e-06,0.0,0 STARLINK-3099,1 49446U 21104AQ  23191.54407062  .00000319  00000-0  38115-4 0  9994,2 49446  53.2166 257.7397 0000757  87.4636 272.6443 15.08837857 93074,6917.887,95.438,540.276,539.228,0.0
49446.0,STARLINK-3099,PAYLOAD,2023-07-11 04:57:19,15.08832012,7.66e-05,53.2161,254.7665,90.082,270.026,4.6903e-05,4.59e-06,0.0,0 STARLINK-3099,1 49446U 21104AQ  23192.20647619  .00000459  00000-0  46903-4 0  9991,2 49446  53.2161 254.7665 0000766  90.0820 270.0260 15.08832012 93177,6917.905,95.438,540.3,539.24,0.0
49446.0,STARLINK-3099,PAYLOAD,2023-07-12 15:55:48,15.08845279,7.8e-05,53.2165,248.2246,81.0333,279.0747,0.00014703,2.053e-05,0.0,0 STARLINK-3099,1 49446U 21104AQ  23193.66375031  .00002053  00000-0  14703-3 0  9992,2 49446  53.2165 248.2246 0000780  81.0333 279.0747 15.08845279 93391,6917.864,95.437,540.269,539.19,0.0
49446.0,STARLINK-3099,PAYLOAD,2023-07-13 11:00:26,15.08840086,7.84e-05,53.2166,244.6564,83.876,276.2322,9.723e-05,1.26e-05,0.0,0 STARLINK-3099,1 49446U 21104AQ  23194.45863772  .00001260  00000-0  97230-4 0  9990,2 49446  53.2166 244.6564 0000784  83.8760 276.2322 15.08840086 93516,6917.88,95.438,540.287,539.203,0.0
